NORAD_CAT_ID,OBJECT_NAME,OBJECT_TYPE,EPOCH,MEAN_MOTION,ECCENTRICITY,INCLINATION,RA_OF_ASC_NODE,ARG_OF_PERICENTER,MEAN_ANOMALY,BSTAR,MEAN_MOTION_DOT,MEAN_MOTION_DDOT,TLE_LINE0,TLE_LINE1,TLE_LINE2,SEMIMAJOR_AXIS,PERIOD,APOGEE,PERIGEE,DECAYED
55650.0,STARLINK-5494,PAYLOAD,2023-12-30 04:24:10,14.98329112,0.000284,69.9998,42.8078,264.0093,96.0742,3.5109e-05,3.26e-06,0.0,0 STARLINK-5494,1 55650U 23021Y   23364.18344908  .00000326  00000-0  35109-4 0  9997,2 55650  69.9998  42.8078 0002840 264.0093  96.0742 14.98329112 48583,6950.196,96.107,574.034,570.087,0.0
55650.0,STARLINK-5494,PAYLOAD,2023-12-30 12:24:50,14.98330867,0.0002881,69.9997,41.966,266.4247,93.6582,4.7744e-05,4.77e-06,0.0,0 STARLINK-5494,1 55650U 23021Y   23364.51724773  .00000477  00000-0  47744-4 0  9991,2 55650  69.9997  41.9660 0002881 266.4247  93.6582 14.98330867 48934,6950.19,96.107,574.058,570.053,0.0
55650.0,STARLINK-5494,PAYLOAD,2023-12-31 10:50:43,14.98327762,0.0002855,69.9996,39.6088,266.2952,93.7881,-4.8179e-06,-1.5e-06,0.0,0 STARLINK-5494,1 55650U 23021Y   23365.45189123 -.00000150  00000-0 -48179-5 0  9993,2 55650  69.9996  39.6088 0002855 266.2952  93.7881 14.98327762 48778,6950.2,96.107,574.049,570.081,0.0
55650.0,STARLINK-5494,PAYLOAD,2023-12-31 12:26:51,14.98327775,0.0002859,69.9996,39.4405,266.5932,93.49,-5.0391e-06,-1.53e-06,0.0,0 STARLINK-5494,1 55650U 23021Y   23365.51865129 -.00000153  00000-0 -50391-5 0  9999,2 55650  69.9996  39.4405 0002859 266.5932  93.4900 14.98327775 49082,6950.2,96.107,574.052,570.078,0.0
55650.0,STARLINK-5494,PAYLOAD,2024-01-01 10:52:43,14.98334047,0.0002862,69.9995,37.0836,268.2073,91.8759,2.5996e-05,2.17e-06,0.0,0 STARLINK-5494,1 55650U 23021Y   24001.45328584  .00000217  00000-0  25996-4 0  9990,2 55650  69.9995  37.0836 0002862 268.2073  91.8759 14.98334047 48928,6950.18,96.107,574.035,570.056,0.0
55650.0,STARLINK-5494,PAYLOAD,2024-01-01 12:28:51,14.98334336,0.0002857,69.9995,36.9152,268.2318,91.8514,2.9296e-05,2.57e-06,0.0,0 STARLINK-5494,1 55650U 23021Y   24001.52004539  .00000257  00000-0  29296-4 0  9990,2 55650  69.9995  36.9152 0002857 268.2318  91.8514 14.98334336 49238,6950.179,96.107,574.03,570.059,0.0
55650.0,STARLINK-5494,PAYLOAD,2024-01-02 10:54:44,14.98329473,0.000274,69.9997,34.5585,270.4819,89.6027,4.3997e-05,4.32e-06,0.0,0 STARLINK-5494,1 55650U 23021Y   24002.45468739  .00000432  00000-0  43997-4 0  9998,2 55650  69.9997  34.5585 0002740 270.4819  89.6027 14.98329473 49078,6950.195,96.107,573.964,570.155,0.0
55650.0,STARLINK-5494,PAYLOAD,2024-01-02 12:30:53,14.98329768,0.0002734,69.9997,34.3903,270.4787,89.6059,4.7343e-05,4.72e-06,0.0,0 STARLINK-5494,1 55650U 23021Y   24002.52144709  .00000472  00000-0  47343-4 0  9997,2 55650  69.9997  34.3903 0002734 270.4787  89.6059 14.98329768 49383,6950.194,96.107,573.959,570.158,0.0
55650.0,STARLINK-5494,PAYLOAD,2024-01-03 10:56:46,14.98329626,0.0002742,69.9998,32.0339,267.692,92.3925,-3.9567e-05,-5.65e-06,0.0,0 STARLINK-5494,1 55650U 23021Y   24003.45608858 -.00000565  00000-0 -39567-4 0  9994,2 55650  69.9998  32.0339 0002742 267.6920  92.3925 14.98329626 49227,6950.194,96.107,573.965,570.153,0.0
55650.0,STARLINK-5494,PAYLOAD,2024-01-04 10:58:46,14.98331663,0.0002843,69.9995,29.5087,265.8059,94.2775,1.1002e-05,3.8e-07,0.0,0 STARLINK-5494,1 55650U 23021Y   24004.45748470  .00000038  00000-0  11002-4 0  9997,2 55650  69.9995  29.5087 0002843 265.8059  94.2775 14.98331663 49374,6950.188,96.107,574.029,570.077,0.0
55650.0,STARLINK-5494,PAYLOAD,2024-01-05 04:36:15,14.98324392,0.0002828,69.9996,27.6578,262.6027,97.481,-3.5844e-05,-5.21e-06,0.0,0 STARLINK-5494,1 55650U 23021Y   24005.19185083 -.00000521  00000-0 -35844-4 0  9993,2 55650  69.9996  27.6578 0002828 262.6027  97.4810 14.98324392 49480,6950.21,96.107,574.041,570.11,0.0
55650.0,STARLINK-5494,PAYLOAD,2024-01-05 11:00:48,14.98324539,0.0002811,69.9997,26.9847,262.1036,97.9804,-3.1386e-05,-4.67e-06,0.0,0 STARLINK-5494,1 55650U 23021Y   24005.45889143 -.00000467  00000-0 -31386-4 0  9996,2 55650  69.9997  26.9847 0002811 262.1036  97.9804 14.98324539 49828,6950.21,96.107,574.028,570.121,0.0
55650.0,STARLINK-5494,PAYLOAD,2024-01-06 04:38:16,14.98333953,0.0002873,69.9995,25.1325,265.1294,94.9537,4.7845e-05,4.78e-06,0.0,0 STARLINK-5494,1 55650U 23021Y   24006.19324321  .00000478  00000-0  47845-4 0  9997,2 55650  69.9995  25.1325 0002873 265.1294  94.9537 14.98333953 49634,6950.181,96.107,574.042,570.049,0.0
55650.0,STARLINK-5494,PAYLOAD,2024-01-06 11:02:48,14.98335139,0.0002848,69.9995,24.4592,265.0174,95.066,6.0069e-05,6.24e-06,0.0,0 STARLINK-5494,1 55650U 23021Y   24006.46028141  .00000624  00000-0  60069-4 0  9994,2 55650  69.9995  24.4592 0002848 265.0174  95.0660 14.98335139 49974,6950.177,96.107,574.021,570.063,0.0
55650.0,STARLINK-5494,PAYLOAD,2024-01-07 03:04:09,14.98326267,0.0002788,69.9996,22.7748,265.8654,94.2186,4.5036e-05,4.44e-06,0.0,0 STARLINK-5494,1 55650U 23021Y   24007.12788659  .00000444  00000-0  45036-4 0  9992,2 55650  69.9996  22.7748 0002788 265.8654  94.2186 14.98326267 49777,6950.204,96.107,574.007,570.132,0.0
55650.0,STARLINK-5494,PAYLOAD,2024-01-07 11:04:49,14.98327004,0.0002665,69.9999,21.933,265.6187,94.4668,5.4755e-05,5.6e-06,0.0,0 STARLINK-5494,1 55650U 23021Y   24007.46168647  .00000560  00000-0  54755-4 0  9995,2 55650  69.9999  21.9330 0002665 265.6187  94.4668 14.98327004 50129,6950.202,96.107,573.919,570.215,0.0
55650.0,STARLINK-5494,PAYLOAD,2024-01-08 03:06:10,14.98329507,0.0002639,69.9999,20.2498,264.3409,95.7449,-6.3407e-05,-8.49e-06,0.0,0 STARLINK-5494,1 55650U 23021Y   24008.12928789 -.00000849  00000-0 -63407-4 0  9996,2 55650  69.9999  20.2498 0002639 264.3409  95.7449 14.98329507 49927,6950.194,96.107,573.894,570.225,0.0
55650.0,STARLINK-5494,PAYLOAD,2024-01-08 09:30:42,14.98338763,0.0002183,70.0,19.5765,248.8132,111.2794,-0.00021282,-2.632e-05,0.0,0 STARLINK-5494,1 55650U 23021Y   24008.39632573 -.00002632  00000-0 -21282-3 0  9994,2 55650  70.0000  19.5765 0002183 248.8132 111.2794 14.98338763 50265,6950.166,96.106,573.548,570.514,0.0
55650.0,STARLINK-5494,PAYLOAD,2024-01-09 11:08:51,14.98330601,0.0002425,70.0009,16.8842,259.0138,101.0748,5.5849e-05,5.74e-06,0.0,0 STARLINK-5494,1 55650U 23021Y   24009.46448276  .00000574  00000-0  55849-4 0  9996,2 55650  70.0009  16.8842 0002425 259.0138 101.0748 14.98330601 50123,6950.191,96.107,573.741,570.371,0.0
55650.0,STARLINK-5494,PAYLOAD,2024-01-10 09:34:44,14.98328794,0.0002642,70.0002,14.5272,263.8395,96.2463,3.2391e-05,2.94e-06,0.0,0 STARLINK-5494,1 55650U 23021Y   24010.39912322  .00000294  00000-0  32391-4 0  9994,2 55650  70.0002  14.5272 0002642 263.8395  96.2463 14.98328794 50564,6950.197,96.107,573.898,570.225,0.0
55650.0,STARLINK-5494,PAYLOAD,2024-01-11 03:12:12,14.98330627,0.0002584,70.0005,12.676,263.1734,96.9132,-3.579e-05,-5.2e-06,0.0,0 STARLINK-5494,1 55650U 23021Y   24011.13348345 -.00000520  00000-0 -35790-4 0  9995,2 55650  70.0005  12.6760 0002584 263.1734  96.9132 14.98330627 50370,6950.191,96.107,573.852,570.26,0.0
55650.0,STARLINK-5494,PAYLOAD,2024-01-11 09:36:45,14.98331021,0.0002566,70.0005,12.0027,262.9103,97.1765,-2.6619e-05,-4.11e-06,0.0,0 STARLINK-5494,1 55650U 23021Y   24011.40052273 -.00000411  00000-0 -26619-4 0  9996,2 55650  70.0005  12.0027 0002566 262.9103  97.1765 14.98331021 50719,6950.19,96.107,573.838,570.271,0.0
55650.0,STARLINK-5494,PAYLOAD,2024-01-12 03:14:14,14.98326085,0.0002582,70.0005,10.151,262.7015,97.385,-2.9093e-05,-4.4e-06,0.0,0 STARLINK-5494,1 55650U 23021Y   24012.13488581 -.00000440  00000-0 -29093-4 0  9993,2 55650  70.0005  10.1510 0002582 262.7015  97.3850 14.98326085 50523,6950.205,96.107,573.865,570.275,0.0
55650.0,STARLINK-5494,PAYLOAD,2024-01-12 09:38:46,14.98327117,0.0002569,70.0006,9.4778,262.7645,97.3222,-1.4933e-05,-2.71e-06,0.0,0 STARLINK-5494,1 55650U 23021Y   24012.40192537 -.00000271  00000-0 -14933-4 0  9995,2 55650  70.0006   9.4778 0002569 262.7645  97.3222 14.98327117 50862,6950.202,96.107,573.852,570.281,0.0
55650.0,STARLINK-5494,PAYLOAD,2024-01-13 03:16:14,14.98329036,0.0002759,70.0001,7.6249,268.8514,91.2329,3.738e-06,-4.8e-07,0.0,0 STARLINK-5494,1 55650U 23021Y   24013.13628423 -.00000048  00000-0  37380-5 0  9997,2 55650  70.0001   7.6249 0002759 268.8514  91.2329 14.98329036 50675,6950.196,96.107,573.978,570.143,0.0
55650.0,STARLINK-5494,PAYLOAD,2024-01-13 09:40:47,14.98330798,0.0002617,70.0004,6.9525,262.7887,97.2975,3.1245e-05,2.8e-06,0.0,0 STARLINK-5494,1 55650U 23021Y   24013.40332219  .00000280  00000-0  31245-4 0  9992,2 55650  70.0004   6.9525 0002617 262.7887  97.2975 14.98330798 51015,6950.19,96.107,573.874,570.237,0.0
55650.0,STARLINK-5494,PAYLOAD,2024-01-14 03:18:15,14.98328501,0.0002621,70.0004,5.1008,259.6982,100.3882,3.7327e-05,3.52e-06,0.0,0 STARLINK-5494,1 55650U 23021Y   24014.13768333  .00000352  00000-0  37327-4 0  9990,2 55650  70.0004   5.1008 0002621 259.6982 100.3882 14.98328501 50828,6950.198,96.107,573.884,570.241,0.0
55650.0,STARLINK-5494,PAYLOAD,2024-01-14 09:42:47,14.98330668,0.000259,70.0006,4.4273,260.0983,99.9884,6.0674e-05,6.31e-06,0.0,0 STARLINK-5494,1 55650U 23021Y   24014.40472140  .00000631  00000-0  60674-4 0  9999,2 55650  70.0006   4.4273 0002590 260.0983  99.9884 14.98330668 51168,6950.191,96.107,573.856,570.256,0.0
55650.0,STARLINK-5494,PAYLOAD,2024-01-15 03:20:16,14.9833248,0.0002571,70.0006,2.5756,258.8169,101.2701,1.7522e-05,1.16e-06,0.0,0 STARLINK-5494,1 55650U 23021Y   24015.13908033  .00000116  00000-0  17522-4 0  9997,2 55650  70.0006   2.5756 0002571 258.8169 101.2701 14.98332480 50970,6950.185,96.107,573.837,570.263,0.0
55650.0,STARLINK-5494,PAYLOAD,2024-01-15 08:08:40,14.9833205,0.0002574,70.0007,2.0708,258.9973,101.0896,1.1365e-05,4.3e-07,0.0,0 STARLINK-5494,1 55650U 23021Y   24015.33936052  .00000043  00000-0  11365-4 0  9999,2 55650  70.0007   2.0708 0002574 258.9973 101.0896 14.98332050 51304,6950.187,96.107,573.841,570.263,0.0
